[{"OBJECT_NAME":"STARLINK-31045","OBJECT_ID":"2023-192L","EPOCH":"2026-03-09T11:50:24.156096","MEAN_MOTION":15.3018162,"ECCENTRICITY":0.00010028,"INCLINATION":53.1602,"RA_OF_ASC_NODE":140.4943,"ARG_OF_PERICENTER":103.4941,"MEAN_ANOMALY":256.6172,"EPHEMERIS_TYPE":0,"CLASSIFICATION_TYPE":"U","NORAD_CAT_ID":58541,"ELEMENT_SET_NO":999,"REV_AT_EPOCH":12486,"BSTAR":-2.8881495e-5,"MEAN_MOTION_DOT":-1.214e-5,"MEAN_MOTION_DDOT":0},{"OBJECT_NAME":"NOAA 17 DEB","OBJECT_ID":"2002-032AF","EPOCH":"2026-03-09T00:24:06.552000","MEAN_MOTION":15.25501717,"ECCENTRICITY":0.00030847,"INCLINATION":98.6472,"RA_OF_ASC_NODE":92.5947,"ARG_OF_PERICENTER":165.9893,"MEAN_ANOMALY":194.1428,"EPHEMERIS_TYPE":0,"CLASSIFICATION_TYPE":"U","NORAD_CAT_ID":48614,"ELEMENT_SET_NO":999,"REV_AT_EPOCH":26420,"BSTAR":0.01090047,"MEAN_MOTION_DOT":0.00286783,"MEAN_MOTION_DDOT":0}]
